[
  {
    "OBJECT_NAME": "SWIFT",
    "OBJECT_ID": "2004-047A",
    "EPOCH": "2026-04-05T10:58:39.953568",
    "MEAN_MOTION": 15.61958526,
    "ECCENTRICITY": 0.00029543,
    "INCLINATION": 20.5544,
    "RA_OF_ASC_NODE": 23.1109,
    "ARG_OF_PERICENTER": 14.1211,
    "MEAN_ANOMALY": 345.9316,
    "EPHEMERIS_TYPE": 0,
    "CLASSIFICATION_TYPE": "U",
    "NORAD_CAT_ID": 28485,
    "ELEMENT_SET_NO": 999,
    "REV_AT_EPOCH": 17545,
    "BSTAR": 0.0006361734,
    "MEAN_MOTION_DOT": 0.0005913,
    "MEAN_MOTION_DDOT": 0
  },
  {
    "OBJECT_NAME": "HINODE (SOLAR-B)",
    "OBJECT_ID": "2006-041A",
    "EPOCH": "2026-04-05T18:12:22.255488",
    "MEAN_MOTION": 14.68521608,
    "ECCENTRICITY": 0.00181363,
    "INCLINATION": 98.0602,
    "RA_OF_ASC_NODE": 112.9689,
    "ARG_OF_PERICENTER": 153.8415,
    "MEAN_ANOMALY": 206.371,
    "EPHEMERIS_TYPE": 0,
    "CLASSIFICATION_TYPE": "U",
    "NORAD_CAT_ID": 29479,
    "ELEMENT_SET_NO": 999,
    "REV_AT_EPOCH": 4424,
    "BSTAR": 0.00018230768,
    "MEAN_MOTION_DOT": 1.011e-5,
    "MEAN_MOTION_DDOT": 0
  },
  {
    "OBJECT_NAME": "SHIJIAN-6 02A (SJ-6 02A)",
    "OBJECT_ID": "2006-046A",
    "EPOCH": "2026-04-05T23:21:13.368096",
    "MEAN_MOTION": 15.16135447,
    "ECCENTRICITY": 0.00041015,
    "INCLINATION": 97.6443,
    "RA_OF_ASC_NODE": 136.5131,
    "ARG_OF_PERICENTER": 51.6746,
    "MEAN_ANOMALY": 308.4855,
    "EPHEMERIS_TYPE": 0,
    "CLASSIFICATION_TYPE": "U",
    "NORAD_CAT_ID": 29505,
    "ELEMENT_SET_NO": 999,
    "REV_AT_EPOCH": 6132,
    "BSTAR": 0.00026152219,
    "MEAN_MOTION_DOT": 4.974e-5,
    "MEAN_MOTION_DDOT": 0
  },
  {
    "OBJECT_NAME": "SHIJIAN-6 02B (SJ-6 02B)",
    "OBJECT_ID": "2006-046B",
    "EPOCH": "2026-04-05T23:05:36.552768",
    "MEAN_MOTION": 15.01142163,
    "ECCENTRICITY": 0.00121167,
    "INCLINATION": 97.7103,
    "RA_OF_ASC_NODE": 125.4878,
    "ARG_OF_PERICENTER": 314.3352,
    "MEAN_ANOMALY": 45.6878,
    "EPHEMERIS_TYPE": 0,
    "CLASSIFICATION_TYPE": "U",
    "NORAD_CAT_ID": 29506,
    "ELEMENT_SET_NO": 999,
    "REV_AT_EPOCH": 5990,
    "BSTAR": 0.00017203491,
    "MEAN_MOTION_DOT": 2.146e-5,
    "MEAN_MOTION_DDOT": 0
  },
  {
    "OBJECT_NAME": "FGRST (GLAST)",
    "OBJECT_ID": "2008-029A",
    "EPOCH": "2026-04-05T22:20:47.058144",
    "MEAN_MOTION": 15.23556656,
    "ECCENTRICITY": 0.00080341,
    "INCLINATION": 25.5841,
    "RA_OF_ASC_NODE": 346.0389,
    "ARG_OF_PERICENTER": 191.0894,
    "MEAN_ANOMALY": 168.9468,
    "EPHEMERIS_TYPE": 0,
    "CLASSIFICATION_TYPE": "U",
    "NORAD_CAT_ID": 33053,
    "ELEMENT_SET_NO": 999,
    "REV_AT_EPOCH": 98480,
    "BSTAR": 0.0001703373,
    "MEAN_MOTION_DOT": 4.53e-5,
    "MEAN_MOTION_DDOT": 0
  },
  {
    "OBJECT_NAME": "SDO",
    "OBJECT_ID": "2010-005A",
    "EPOCH": "2026-04-03T00:09:38.804832",
    "MEAN_MOTION": 1.00274249,
    "ECCENTRICITY": 5.789e-5,
    "INCLINATION": 34.4952,
    "RA_OF_ASC_NODE": 87.4755,
    "ARG_OF_PERICENTER": 22.7728,
    "MEAN_ANOMALY": 341.7255,
    "EPHEMERIS_TYPE": 0,
    "CLASSIFICATION_TYPE": "U",
    "NORAD_CAT_ID": 36395,
    "ELEMENT_SET_NO": 999,
    "REV_AT_EPOCH": 5931,
    "BSTAR": 0,
    "MEAN_MOTION_DOT": -5.4e-7,
    "MEAN_MOTION_DDOT": 0
  },
  {
    "OBJECT_NAME": "CRYOSAT 2",
    "OBJECT_ID": "2010-013A",
    "EPOCH": "2026-04-05T22:07:56.031456",
    "MEAN_MOTION": 14.51899183,
    "ECCENTRICITY": 0.000246,
    "INCLINATION": 92.0257,
    "RA_OF_ASC_NODE": 259.7749,
    "ARG_OF_PERICENTER": 96.8721,
    "MEAN_ANOMALY": 263.2766,
    "EPHEMERIS_TYPE": 0,
    "CLASSIFICATION_TYPE": "U",
    "NORAD_CAT_ID": 36508,
    "ELEMENT_SET_NO": 999,
    "REV_AT_EPOCH": 84759,
    "BSTAR": 8.246871e-5,
    "MEAN_MOTION_DOT": 3.35e-6,
    "MEAN_MOTION_DDOT": 0
  },
  {
    "OBJECT_NAME": "X-SAT",
    "OBJECT_ID": "2011-015C",
    "EPOCH": "2026-04-05T21:55:14.134656",
    "MEAN_MOTION": 14.25184835,
    "ECCENTRICITY": 0.00135821,
    "INCLINATION": 98.3468,
    "RA_OF_ASC_NODE": 76.4018,
    "ARG_OF_PERICENTER": 190.5961,
    "MEAN_ANOMALY": 169.4936,
    "EPHEMERIS_TYPE": 0,
    "CLASSIFICATION_TYPE": "U",
    "NORAD_CAT_ID": 37389,
    "ELEMENT_SET_NO": 999,
    "REV_AT_EPOCH": 77738,
    "BSTAR": 0.0001252441,
    "MEAN_MOTION_DOT": 2.53e-6,
    "MEAN_MOTION_DDOT": 0
  },
  {
    "OBJECT_NAME": "GCOM-W1 (SHIZUKU)",
    "OBJECT_ID": "2012-025A",
    "EPOCH": "2026-04-05T20:41:41.596800",
    "MEAN_MOTION": 14.57140276,
    "ECCENTRICITY": 0.00011065,
    "INCLINATION": 98.2089,
    "RA_OF_ASC_NODE": 37.5223,
    "ARG_OF_PERICENTER": 75.7164,
    "MEAN_ANOMALY": 351.202,
    "EPHEMERIS_TYPE": 0,
    "CLASSIFICATION_TYPE": "U",
    "NORAD_CAT_ID": 38337,
    "ELEMENT_SET_NO": 999,
    "REV_AT_EPOCH": 73850,
    "BSTAR": 0.0001964543,
    "MEAN_MOTION_DOT": 8.4e-6,
    "MEAN_MOTION_DDOT": 0
  },
  {
    "OBJECT_NAME": "NUSTAR",
    "OBJECT_ID": "2012-031A",
    "EPOCH": "2026-04-06T00:00:02.000160",
    "MEAN_MOTION": 15.08107405,
    "ECCENTRICITY": 0.00069167,
    "INCLINATION": 6.0266,
    "RA_OF_ASC_NODE": 215.337,
    "ARG_OF_PERICENTER": 120.4027,
    "MEAN_ANOMALY": 10.1906,
    "EPHEMERIS_TYPE": 0,
    "CLASSIFICATION_TYPE": "U",
    "NORAD_CAT_ID": 38358,
    "ELEMENT_SET_NO": 999,
    "REV_AT_EPOCH": 130,
    "BSTAR": 0.00052662001,
    "MEAN_MOTION_DOT": 9.233e-5,
    "MEAN_MOTION_DDOT": 0
  },
  {
    "OBJECT_NAME": "NEOSSAT",
    "OBJECT_ID": "2013-009D",
    "EPOCH": "2026-04-05T10:56:56.182848",
    "MEAN_MOTION": 14.3580034,
    "ECCENTRICITY": 0.0012176,
    "INCLINATION": 98.4161,
    "RA_OF_ASC_NODE": 277.2219,
    "ARG_OF_PERICENTER": 102.3724,
    "MEAN_ANOMALY": 257.8825,
    "EPHEMERIS_TYPE": 0,
    "CLASSIFICATION_TYPE": "U",
    "NORAD_CAT_ID": 39089,
    "ELEMENT_SET_NO": 999,
    "REV_AT_EPOCH": 68630,
    "BSTAR": 9.8686e-5,
    "MEAN_MOTION_DOT": 2.43e-6,
    "MEAN_MOTION_DDOT": 0
  },
  {
    "OBJECT_NAME": "BRITE-AUSTRIA",
    "OBJECT_ID": "2013-009F",
    "EPOCH": "2026-04-05T18:28:07.140576",
    "MEAN_MOTION": 14.36512684,
    "ECCENTRICITY": 0.00113987,
    "INCLINATION": 98.3977,
    "RA_OF_ASC_NODE": 277.0021,
    "ARG_OF_PERICENTER": 96.1782,
    "MEAN_ANOMALY": 264.0703,
    "EPHEMERIS_TYPE": 0,
    "CLASSIFICATION_TYPE": "U",
    "NORAD_CAT_ID": 39091,
    "ELEMENT_SET_NO": 999,
    "REV_AT_EPOCH": 68665,
    "BSTAR": 0.00011980764,
    "MEAN_MOTION_DOT": 3.09e-6,
    "MEAN_MOTION_DDOT": 0
  },
  {
    "OBJECT_NAME": "IRIS",
    "OBJECT_ID": "2013-033A",
    "EPOCH": "2026-04-05T13:37:02.633376",
    "MEAN_MOTION": 14.85733932,
    "ECCENTRICITY": 0.0024135,
    "INCLINATION": 97.9379,
    "RA_OF_ASC_NODE": 295.0569,
    "ARG_OF_PERICENTER": 193.5128,
    "MEAN_ANOMALY": 166.5444,
    "EPHEMERIS_TYPE": 0,
    "CLASSIFICATION_TYPE": "U",
    "NORAD_CAT_ID": 39197,
    "ELEMENT_SET_NO": 999,
    "REV_AT_EPOCH": 68959,
    "BSTAR": 0.00024211,
    "MEAN_MOTION_DOT": 2.057e-5,
    "MEAN_MOTION_DDOT": 0
  }
]
